start=new Date('2023-01-27T00:00:00.000Z').valueOf();
sats=[{"LAUNCH_DATE":"2021-02-16","NORAD_CAT_ID":"47646","EPOCH":"2023-01-26T09:25:50.392704","MEAN_MOTION_DDOT":"0.0000000000000","OBJECT_ID":"2021-012AC","CENTER_NAME":"EARTH","SITE":"AFETR","ELEMENT_SET_NO":"999","TLE_LINE2":"2 47646  53.0535  76.8732 0001422  90.1541 269.9611 15.06403020108804","ECCENTRICITY":"0.00014220","REF_FRAME":"TEME","INCLINATION":"53.0535","FILE":"3762126","MEAN_ANOMALY":"269.9611","PERIOD":"95.592","ARG_OF_PERICENTER":"90.1541","MEAN_MOTION_DOT":"0.00002764","MEAN_ELEMENT_THEORY":"SGP4","GP_ID":"223764077","RCS_SIZE":"LARGE","EPHEMERIS_TYPE":"0","BSTAR":"0.00020434000000","PERIAPSIS":"546.220","DECAY_DATE":null,"RA_OF_ASC_NODE":"76.8732","TIME_SYSTEM":"UTC","TLE_LINE1":"1 47646U 21012AC  23026.39294436  .00002764  00000-0  20434-3 0  9991","APOAPSIS":"548.189","OBJECT_TYPE":"PAYLOAD","OBJECT_NAME":"STARLINK-2028","CLASSIFICATION_TYPE":"U","COUNTRY_CODE":"US","SEMIMAJOR_AXIS":"6925.339","REV_AT_EPOCH":"10880","MEAN_MOTION":"15.06403020"},{"EPHEMERIS_TYPE":"0","GP_ID":"223764094","RCS_SIZE":"LARGE","MEAN_ELEMENT_THEORY":"SGP4","MEAN_MOTION_DOT":"0.00003008","APOAPSIS":"548.064","TLE_LINE1":"1 47647U 21012AD  23026.59517342  .00003008  00000-0  22070-3 0  9998","TIME_SYSTEM":"UTC","PERIAPSIS":"546.321","DECAY_DATE":null,"RA_OF_ASC_NODE":"140.7257","BSTAR":"0.00022070000000","COUNTRY_CODE":"US","CLASSIFICATION_TYPE":"U","OBJECT_NAME":"STARLINK-2030","OBJECT_TYPE":"PAYLOAD","MEAN_MOTION":"15.06406815","REV_AT_EPOCH":"10793","SEMIMAJOR_AXIS":"6925.328","NORAD_CAT_ID":"47647","LAUNCH_DATE":"2021-02-16","SITE":"AFETR","CENTER_NAME":"EARTH","MEAN_MOTION_DDOT":"0.0000000000000","OBJECT_ID":"2021-012AD","EPOCH":"2023-01-26T14:17:02.983488","ELEMENT_SET_NO":"999","PERIOD":"95.592","ARG_OF_PERICENTER":"93.0246","MEAN_ANOMALY":"267.0886","FILE":"3762127","INCLINATION":"53.0512","ECCENTRICITY":"0.00012580","TLE_LINE2":"2 47647  53.0512 140.7257 0001258  93.0246 267.0886 15.06406815107935","REF_FRAME":"TEME"},{"INCLINATION":"53.0537","FILE":"3762169","TLE_LINE2":"2 47648  53.0537 121.0660 0001491  70.7908 289.3243 15.06398762108205","ECCENTRICITY":"0.00014910","REF_FRAME":"TEME","PERIOD":"95.592","ARG_OF_PERICENTER":"70.7908","MEAN_ANOMALY":"289.3243","ELEMENT_SET_NO":"999","MEAN_MOTION_DDOT":"0.0000000000000","OBJECT_ID":"2021-012AE","CENTER_NAME":"EARTH","EPOCH":"2023-01-26T12:28:14.996064","SITE":"AFETR","NORAD_CAT_ID":"47648","LAUNCH_DATE":"2021-02-16","REV_AT_EPOCH":"10820","SEMIMAJOR_AXIS":"6925.352","MEAN_MOTION":"15.06398762","OBJECT_NAME":"STARLINK-2031","OBJECT_TYPE":"PAYLOAD","CLASSIFICATION_TYPE":"U","COUNTRY_CODE":"US","PERIAPSIS":"546.185","DECAY_DATE":null,"RA_OF_ASC_NODE":"121.0660","BSTAR":"0.00009868100000","APOAPSIS":"548.250","TIME_SYSTEM":"UTC","TLE_LINE1":"1 47648U 21012AE  23026.51961801  .00001189  00000-0  98681-4 0  9994","MEAN_ELEMENT_THEORY":"SGP4","MEAN_MOTION_DOT":"0.00001189","EPHEMERIS_TYPE":"0","RCS_SIZE":"MEDIUM","GP_ID":"223765633"},{"MEAN_MOTION":"15.06404425","REV_AT_EPOCH":"10872","SEMIMAJOR_AXIS":"6925.335","CLASSIFICATION_TYPE":"U","COUNTRY_CODE":"US","OBJECT_NAME":"STARLINK-2032","OBJECT_TYPE":"PAYLOAD","APOAPSIS":"548.083","TIME_SYSTEM":"UTC","TLE_LINE1":"1 47649U 21012AF  23026.52330427  .00005612  00000-0  39527-3 0  9998","PERIAPSIS":"546.317","DECAY_DATE":null,"RA_OF_ASC_NODE":"121.0583","BSTAR":"0.00039527000000","EPHEMERIS_TYPE":"0","RCS_SIZE":"LARGE","GP_ID":"223756126","MEAN_ELEMENT_THEORY":"SGP4","MEAN_MOTION_DOT":"0.00005612","PERIOD":"95.592","ARG_OF_PERICENTER":"78.5189","MEAN_ANOMALY":"281.5943","FILE":"3761951","INCLINATION":"53.0514","TLE_LINE2":"2 47649  53.0514 121.0583 0001275  78.5189 281.5943 15.06404425108724","REF_FRAME":"TEME","ECCENTRICITY":"0.00012750","ELEMENT_SET_NO":"999","SITE":"AFETR","OBJECT_ID":"2021-012AF","MEAN_MOTION_DDOT":"0.0000000000000","CENTER_NAME":"EARTH","EPOCH":"2023-01-26T12:33:33.488928","NORAD_CAT_ID":"47649","LAUNCH_DATE":"2021-02-16"},{"SITE":"AFETR","EPOCH":"2023-01-26T13:47:51.470592","CENTER_NAME":"EARTH","OBJECT_ID":"2021-012AG","MEAN_MOTION_DDOT":"0.0000000000000","LAUNCH_DATE":"2021-02-16","NORAD_CAT_ID":"47650","MEAN_ANOMALY":"264.6007","PERIOD":"95.591","ARG_OF_PERICENTER":"95.5096","TLE_LINE2":"2 47650  53.0523 120.8244 0001005  95.5096 264.6007 15.06411303108203","ECCENTRICITY":"0.00010050","REF_FRAME":"TEME","FILE":"3761998","INCLINATION":"53.0523","ELEMENT_SET_NO":"999","TLE_LINE1":"1 47650U 21012AG  23026.57490128  .00004184  00000-0  29953-3 0  9995","TIME_SYSTEM":"UTC","APOAPSIS":"547.875","BSTAR":"0.00029953000000","DECAY_DATE":null,"RA_OF_ASC_NODE":"120.8244","PERIAPSIS":"546.483","GP_ID":"223761573","RCS_SIZE":"LARGE","EPHEMERIS_TYPE":"0","MEAN_MOTION_DOT":"0.00004184","MEAN_ELEMENT_THEORY":"SGP4","MEAN_MOTION":"15.06411303","SEMIMAJOR_AXIS":"6925.314","REV_AT_EPOCH":"10820","COUNTRY_CODE":"US","CLASSIFICATION_TYPE":"U","OBJECT_TYPE":"PAYLOAD","OBJECT_NAME":"STARLINK-2033"},{"MEAN_ELEMENT_THEORY":"SGP4","MEAN_MOTION_DOT":"0.00000649","EPHEMERIS_TYPE":"0","GP_ID":"223754624","RCS_SIZE":"LARGE","DECAY_DATE":null,"RA_OF_ASC_NODE":"140.9906","PERIAPSIS":"546.224","BSTAR":"0.00006243900000","APOAPSIS":"548.207","TIME_SYSTEM":"UTC","TLE_LINE1":"1 47651U 21012AH  23026.54726428  .00000649  00000-0  62439-4 0  9997","OBJECT_NAME":"STARLINK-2035","OBJECT_TYPE":"PAYLOAD","CLASSIFICATION_TYPE":"U","COUNTRY_CODE":"US","REV_AT_EPOCH":"10844","SEMIMAJOR_AXIS":"6925.350","MEAN_MOTION":"15.06399414","NORAD_CAT_ID":"47651","LAUNCH_DATE":"2021-02-16","OBJECT_ID":"2021-012AH","MEAN_MOTION_DDOT":"0.0000000000000","CENTER_NAME":"EARTH","EPOCH":"2023-01-26T13:08:03.633792","SITE":"AFETR","ELEMENT_SET_NO":"999","FILE":"3761951","INCLINATION":"53.0541","TLE_LINE2":"2 47651  53.0541 140.9906 0001432  97.1917 262.9235 15.06399414108444","REF_FRAME":"TEME","ECCENTRICITY":"0.00014320","PERIOD":"95.592","ARG_OF_PERICENTER":"97.1917","MEAN_ANOMALY":"262.9235"},{"MEAN_ELEMENT_THEORY":"SGP4","MEAN_MOTION_DOT":"0.00001740","EPHEMERIS_TYPE":"0","GP_ID":"223764468","RCS_SIZE":"LARGE","DECAY_DATE":null,"PERIAPSIS":"546.454","RA_OF_ASC_NODE":"140.2446","BSTAR":"0.00013563000000","APOAPSIS":"547.901","TLE_LINE1":"1 47652U 21012AJ  23026.70206029  .00001740  00000-0  13563-3 0  9992","TIME_SYSTEM":"UTC","OBJECT_NAME":"STARLINK-2036","OBJECT_TYPE":"PAYLOAD","CLASSIFICATION_TYPE":"U","COUNTRY_CODE":"US","REV_AT_EPOCH":"10794","SEMIMAJOR_AXIS":"6925.312","MEAN_MOTION":"15.06411775","NORAD_CAT_ID":"47652","LAUNCH_DATE":"2021-02-16","CENTER_NAME":"EARTH","MEAN_MOTION_DDOT":"0.0000000000000","OBJECT_ID":"2021-012AJ","EPOCH":"2023-01-26T16:50:58.009056","SITE":"AFETR","ELEMENT_SET_NO":"999","INCLINATION":"53.0553","FILE":"3762129","TLE_LINE2":"2 47652  53.0553 140.2446 0001045  70.2380 289.8722 15.06411775107944","REF_FRAME":"TEME","ECCENTRICITY":"0.00010450","PERIOD":"95.591","ARG_OF_PERICENTER":"70.2380","MEAN_ANOMALY":"289.8722"},{"MEAN_MOTION_DDOT":"0.0000000000000","OBJECT_ID":"2021-012AK","CENTER_NAME":"EARTH","EPOCH":"2023-01-26T13:31:57.173952","SITE":"AFETR","NORAD_CAT_ID":"47653","LAUNCH_DATE":"2021-02-16","FILE":"3761951","INCLINATION":"53.0536","REF_FRAME":"TEME","TLE_LINE2":"2 47653  53.0536 120.8782 0001404 101.5194 258.5952 15.06392179108713","ECCENTRICITY":"0.00014040","ARG_OF_PERICENTER":"101.5194","PERIOD":"95.593","MEAN_ANOMALY":"258.5952","ELEMENT_SET_NO":"999","DECAY_DATE":null,"PERIAPSIS":"546.265","RA_OF_ASC_NODE":"120.8782","BSTAR":"0.00012267000000","APOAPSIS":"548.210","TIME_SYSTEM":"UTC","TLE_LINE1":"1 47653U 21012AK  23026.56385618  .00001546  00000-0  12267-3 0  9993","MEAN_ELEMENT_THEORY":"SGP4","MEAN_MOTION_DOT":"0.00001546","EPHEMERIS_TYPE":"0","RCS_SIZE":"LARGE","GP_ID":"223755626","REV_AT_EPOCH":"10871","SEMIMAJOR_AXIS":"6925.373","MEAN_MOTION":"15.06392179","OBJECT_NAME":"STARLINK-2037","OBJECT_TYPE":"PAYLOAD","COUNTRY_CODE":"US","CLASSIFICATION_TYPE":"U"},{"GP_ID":"223764481","RCS_SIZE":"LARGE","EPHEMERIS_TYPE":"0","MEAN_MOTION_DOT":"0.00001915","MEAN_ELEMENT_THEORY":"SGP4","TLE_LINE1":"1 47654U 21012AL  23026.57305617  .00001915  00000-0  14736-3 0  9999","TIME_SYSTEM":"UTC","APOAPSIS":"547.963","BSTAR":"0.00014736000000","PERIAPSIS":"546.433","DECAY_DATE":null,"RA_OF_ASC_NODE":"140.8253","COUNTRY_CODE":"US","CLASSIFICATION_TYPE":"U","OBJECT_TYPE":"PAYLOAD","OBJECT_NAME":"STARLINK-2038","MEAN_MOTION":"15.06405118","SEMIMAJOR_AXIS":"6925.333","REV_AT_EPOCH":"10792","LAUNCH_DATE":"2021-02-16","NORAD_CAT_ID":"47654","SITE":"AFETR","EPOCH":"2023-01-26T13:45:12.053088","CENTER_NAME":"EARTH","OBJECT_ID":"2021-012AL","MEAN_MOTION_DDOT":"0.0000000000000","ELEMENT_SET_NO":"999","MEAN_ANOMALY":"271.6664","PERIOD":"95.592","ARG_OF_PERICENTER":"88.4451","TLE_LINE2":"2 47654  53.0530 140.8253 0001105  88.4451 271.6664 15.06405118107926","ECCENTRICITY":"0.00011050","REF_FRAME":"TEME","FILE":"3762130","INCLINATION":"53.0530"},{"MEAN_MOTION_DDOT":"0.0000000000000","OBJECT_ID":"2021-012AM","CENTER_NAME":"EARTH","EPOCH":"2023-01-26T16:45:39.957696","SITE":"AFETR","NORAD_CAT_ID":"47655","LAUNCH_DATE":"2021-02-16","INCLINATION":"53.0536","FILE":"3762130","TLE_LINE2":"2 47655  53.0536 140.2691 0001100  72.2372 287.8737 15.06410499107941","REF_FRAME":"TEME","ECCENTRICITY":"0.00011000","PERIOD":"95.591","ARG_OF_PERICENTER":"72.2372","MEAN_ANOMALY":"287.8737","ELEMENT_SET_NO":"999","DECAY_DATE":null,"RA_OF_ASC_NODE":"140.2691","PERIAPSIS":"546.420","BSTAR":"0.00025887000000","APOAPSIS":"547.943","TIME_SYSTEM":"UTC","TLE_LINE1":"1 47655U 21012AM  23026.69837914  .00003578  00000-0  25887-3 0  9999","MEAN_ELEMENT_THEORY":"SGP4","MEAN_MOTION_DOT":"0.00003578","EPHEMERIS_TYPE":"0","GP_ID":"223764349","RCS_SIZE":"LARGE","REV_AT_EPOCH":"10794","SEMIMAJOR_AXIS":"6925.316","MEAN_MOTION":"15.06410499","OBJECT_NAME":"STARLINK-2039","OBJECT_TYPE":"PAYLOAD","COUNTRY_CODE":"US","CLASSIFICATION_TYPE":"U"}];
